SL-4 R/B                
1 39679U 14021B   26034.52902437  .00012984  00000+0  29750-3 0  9998
2 39679  51.6070 143.7845 0099024 338.4792  21.2042 15.38096477651011
ALOS-2                  
1 39766U 14029A   26034.56430623  .00000675  00000+0  97321-4 0  9994
2 39766  97.9227 133.6529 0001425  98.2784 261.8590 14.79473345631826
YAOGAN-29               
1 41038U 15069A   26034.65310781  .00000808  00000+0  10625-3 0  9995
2 41038  98.0175  62.9862 0002915  92.6000 267.5547 14.82956892550836
ASTRO-H (HITOMI)        
1 41337U 16012A   26034.58832625  .00003662  00000+0  21558-3 0  9992
2 41337  30.9978 216.5694 0009875 349.5717  10.4715 15.09749554547074
HXMT (HUIYAN)           
1 42758U 17034A   26034.61042631  .00005827  00000+0  29771-3 0  9999
2 42758  43.0126 206.0732 0031470  16.8157 343.3727 15.17002233477367
CZ-2C R/B               
1 43521U 18054D   26034.50082417  .00279251  29957-4  77031-3 0  9998
2 43521  35.1291 179.0721 0013619 331.2393  28.7594 15.92667316423414
SAOCOM 1A               
1 43641U 18076A   26034.66765032  .00000583  00000+0  79765-4 0  9993
2 43641  97.8857 223.3231 0001369  86.4270 273.7099 14.82150608396321
H-2A R/B                
1 43682U 18084L   26034.50334221  .00020913  00000+0  52299-3 0  9993
2 43682  98.8753 244.6240 0026232 140.4744 219.8417 15.39816309400513
SAOCOM 1B               
1 46265U 20059A   26034.63139900  .00000761  00000+0  10218-3 0  9993
2 46265  97.8856 222.3859 0001362  83.6870 276.4499 14.82159030293708
CSS (TIANHE)            
1 48274U 21035A   26034.52706412  .00018163  00000+0  22908-3 0  9990
2 48274  41.4674  55.7893 0006164 350.4992   9.5728 15.59144861272274
COSMOS 2550             
1 48865U 21056A   26026.13240542 -.00000181  00000+0  32270-6 0  9992
2 48865  67.1441 169.6578 0008309 269.8947  90.1255 15.33840202256938
CZ-2C R/B               
1 52794U 22058K   26034.60326554  .00029913  00000+0  47820-3 0  9997
2 52794  50.1897 133.3094 0042475  56.2790 304.2217 15.51827388204837
