CCSDS_OMM_VERS = 2.0
CREATION_DATE  = 
ORIGINATOR     = 

OBJECT_NAME    = SL-4 R/B
OBJECT_ID      = 2014-021B
CENTER_NAME    = EARTH
REF_FRAME      = TEME
TIME_SYSTEM    = UTC
MEAN_ELEMENT_THEORY = SGP/SGP4

EPOCH          = 2026-02-03T12:41:47.705568
MEAN_MOTION    = 15.38096477
ECCENTRICITY   = .00990247
INCLINATION    = 51.6070
RA_OF_ASC_NODE = 143.7845
ARG_OF_PERICENTER = 338.4792
MEAN_ANOMALY   = 21.2042

EPHEMERIS_TYPE = 0
CLASSIFICATION_TYPE = U
NORAD_CAT_ID   = 39679
ELEMENT_SET_NO = 999
REV_AT_EPOCH   = 65101
BSTAR          = .2975001E-3
MEAN_MOTION_DOT = .12984E-3
MEAN_MOTION_DDOT = 0

CCSDS_OMM_VERS = 2.0
CREATION_DATE  = 
ORIGINATOR     = 

OBJECT_NAME    = ALOS-2
OBJECT_ID      = 2014-029A
CENTER_NAME    = EARTH
REF_FRAME      = TEME
TIME_SYSTEM    = UTC
MEAN_ELEMENT_THEORY = SGP/SGP4

EPOCH          = 2026-02-03T13:32:36.058272
MEAN_MOTION    = 14.79473345
ECCENTRICITY   = .00014252
INCLINATION    = 97.9227
RA_OF_ASC_NODE = 133.6529
ARG_OF_PERICENTER = 98.2784
MEAN_ANOMALY   = 261.8590

EPHEMERIS_TYPE = 0
CLASSIFICATION_TYPE = U
NORAD_CAT_ID   = 39766
ELEMENT_SET_NO = 999
REV_AT_EPOCH   = 63182
BSTAR          = .97321145E-4
MEAN_MOTION_DOT = .675E-5
MEAN_MOTION_DDOT = 0

CCSDS_OMM_VERS = 2.0
CREATION_DATE  = 
ORIGINATOR     = 

OBJECT_NAME    = YAOGAN-29
OBJECT_ID      = 2015-069A
CENTER_NAME    = EARTH
REF_FRAME      = TEME
TIME_SYSTEM    = UTC
MEAN_ELEMENT_THEORY = SGP/SGP4

EPOCH          = 2026-02-03T15:40:28.514784
MEAN_MOTION    = 14.82956892
ECCENTRICITY   = .00029152
INCLINATION    = 98.0175
RA_OF_ASC_NODE = 62.9862
ARG_OF_PERICENTER = 92.6000
MEAN_ANOMALY   = 267.5547

EPHEMERIS_TYPE = 0
CLASSIFICATION_TYPE = U
NORAD_CAT_ID   = 41038
ELEMENT_SET_NO = 999
REV_AT_EPOCH   = 55083
BSTAR          = .1062513E-3
MEAN_MOTION_DOT = .808E-5
MEAN_MOTION_DDOT = 0

CCSDS_OMM_VERS = 2.0
CREATION_DATE  = 
ORIGINATOR     = 

OBJECT_NAME    = ASTRO-H (HITOMI)
OBJECT_ID      = 2016-012A
CENTER_NAME    = EARTH
REF_FRAME      = TEME
TIME_SYSTEM    = UTC
MEAN_ELEMENT_THEORY = SGP/SGP4

EPOCH          = 2026-02-03T14:07:11.388000
MEAN_MOTION    = 15.09749554
ECCENTRICITY   = .00098754
INCLINATION    = 30.9978
RA_OF_ASC_NODE = 216.5694
ARG_OF_PERICENTER = 349.5717
MEAN_ANOMALY   = 10.4715

EPHEMERIS_TYPE = 0
CLASSIFICATION_TYPE = U
NORAD_CAT_ID   = 41337
ELEMENT_SET_NO = 999
REV_AT_EPOCH   = 54707
BSTAR          = .21557625E-3
MEAN_MOTION_DOT = .3662E-4
MEAN_MOTION_DDOT = 0

CCSDS_OMM_VERS = 2.0
CREATION_DATE  = 
ORIGINATOR     = 

OBJECT_NAME    = HXMT (HUIYAN)
OBJECT_ID      = 2017-034A
CENTER_NAME    = EARTH
REF_FRAME      = TEME
TIME_SYSTEM    = UTC
MEAN_ELEMENT_THEORY = SGP/SGP4

EPOCH          = 2026-02-03T14:39:00.833184
MEAN_MOTION    = 15.17002233
ECCENTRICITY   = .00314707
INCLINATION    = 43.0126
RA_OF_ASC_NODE = 206.0732
ARG_OF_PERICENTER = 16.8157
MEAN_ANOMALY   = 343.3727

EPHEMERIS_TYPE = 0
CLASSIFICATION_TYPE = U
NORAD_CAT_ID   = 42758
ELEMENT_SET_NO = 999
REV_AT_EPOCH   = 47736
BSTAR          = .29770551E-3
MEAN_MOTION_DOT = .5827E-4
MEAN_MOTION_DDOT = 0

CCSDS_OMM_VERS = 2.0
CREATION_DATE  = 
ORIGINATOR     = 

OBJECT_NAME    = CZ-2C R/B
OBJECT_ID      = 2018-054D
CENTER_NAME    = EARTH
REF_FRAME      = TEME
TIME_SYSTEM    = UTC
MEAN_ELEMENT_THEORY = SGP/SGP4

EPOCH          = 2026-02-03T12:01:11.208288
MEAN_MOTION    = 15.92667316
ECCENTRICITY   = .00136198
INCLINATION    = 35.1291
RA_OF_ASC_NODE = 179.0721
ARG_OF_PERICENTER = 331.2393
MEAN_ANOMALY   = 28.7594

EPHEMERIS_TYPE = 0
CLASSIFICATION_TYPE = U
NORAD_CAT_ID   = 43521
ELEMENT_SET_NO = 999
REV_AT_EPOCH   = 42341
BSTAR          = .77031116E-3
MEAN_MOTION_DOT = .279251E-2
MEAN_MOTION_DDOT = .29957252E-4

CCSDS_OMM_VERS = 2.0
CREATION_DATE  = 
ORIGINATOR     = 

OBJECT_NAME    = SAOCOM 1A
OBJECT_ID      = 2018-076A
CENTER_NAME    = EARTH
REF_FRAME      = TEME
TIME_SYSTEM    = UTC
MEAN_ELEMENT_THEORY = SGP/SGP4

EPOCH          = 2026-02-03T16:01:24.987648
MEAN_MOTION    = 14.82150608
ECCENTRICITY   = .0001369
INCLINATION    = 97.8857
RA_OF_ASC_NODE = 223.3231
ARG_OF_PERICENTER = 86.4270
MEAN_ANOMALY   = 273.7099

EPHEMERIS_TYPE = 0
CLASSIFICATION_TYPE = U
NORAD_CAT_ID   = 43641
ELEMENT_SET_NO = 999
REV_AT_EPOCH   = 39632
BSTAR          = .79765037E-4
MEAN_MOTION_DOT = .583E-5
MEAN_MOTION_DDOT = 0

CCSDS_OMM_VERS = 2.0
CREATION_DATE  = 
ORIGINATOR     = 

OBJECT_NAME    = H-2A R/B
OBJECT_ID      = 2018-084L
CENTER_NAME    = EARTH
REF_FRAME      = TEME
TIME_SYSTEM    = UTC
MEAN_ELEMENT_THEORY = SGP/SGP4

EPOCH          = 2026-02-03T12:04:48.766944
MEAN_MOTION    = 15.39816309
ECCENTRICITY   = .00262327
INCLINATION    = 98.8753
RA_OF_ASC_NODE = 244.6240
ARG_OF_PERICENTER = 140.4744
MEAN_ANOMALY   = 219.8417

EPHEMERIS_TYPE = 0
CLASSIFICATION_TYPE = U
NORAD_CAT_ID   = 43682
ELEMENT_SET_NO = 999
REV_AT_EPOCH   = 40051
BSTAR          = .52298836E-3
MEAN_MOTION_DOT = .20913E-3
MEAN_MOTION_DDOT = 0

CCSDS_OMM_VERS = 2.0
CREATION_DATE  = 
ORIGINATOR     = 

OBJECT_NAME    = SAOCOM 1B
OBJECT_ID      = 2020-059A
CENTER_NAME    = EARTH
REF_FRAME      = TEME
TIME_SYSTEM    = UTC
MEAN_ELEMENT_THEORY = SGP/SGP4

EPOCH          = 2026-02-03T15:09:12.873600
MEAN_MOTION    = 14.82159030
ECCENTRICITY   = .00013623
INCLINATION    = 97.8856
RA_OF_ASC_NODE = 222.3859
ARG_OF_PERICENTER = 83.6870
MEAN_ANOMALY   = 276.4499

EPHEMERIS_TYPE = 0
CLASSIFICATION_TYPE = U
NORAD_CAT_ID   = 46265
ELEMENT_SET_NO = 999
REV_AT_EPOCH   = 29370
BSTAR          = .10217881E-3
MEAN_MOTION_DOT = .761E-5
MEAN_MOTION_DDOT = 0

CCSDS_OMM_VERS = 2.0
CREATION_DATE  = 
ORIGINATOR     = 

OBJECT_NAME    = CSS (TIANHE)
OBJECT_ID      = 2021-035A
CENTER_NAME    = EARTH
REF_FRAME      = TEME
TIME_SYSTEM    = UTC
MEAN_ELEMENT_THEORY = SGP/SGP4

EPOCH          = 2026-02-03T12:38:58.339968
MEAN_MOTION    = 15.59144861
ECCENTRICITY   = .00061645
INCLINATION    = 41.4674
RA_OF_ASC_NODE = 55.7893
ARG_OF_PERICENTER = 350.4992
MEAN_ANOMALY   = 9.5728

EPHEMERIS_TYPE = 0
CLASSIFICATION_TYPE = U
NORAD_CAT_ID   = 48274
ELEMENT_SET_NO = 999
REV_AT_EPOCH   = 27227
BSTAR          = .22908029E-3
MEAN_MOTION_DOT = .18163E-3
MEAN_MOTION_DDOT = 0

CCSDS_OMM_VERS = 2.0
CREATION_DATE  = 
ORIGINATOR     = 

OBJECT_NAME    = COSMOS 2550
OBJECT_ID      = 2021-056A
CENTER_NAME    = EARTH
REF_FRAME      = TEME
TIME_SYSTEM    = UTC
MEAN_ELEMENT_THEORY = SGP/SGP4

EPOCH          = 2026-01-26T03:10:39.828288
MEAN_MOTION    = 15.33840202
ECCENTRICITY   = .00083094
INCLINATION    = 67.1441
RA_OF_ASC_NODE = 169.6578
ARG_OF_PERICENTER = 269.8947
MEAN_ANOMALY   = 90.1255

EPHEMERIS_TYPE = 0
CLASSIFICATION_TYPE = U
NORAD_CAT_ID   = 48865
ELEMENT_SET_NO = 999
REV_AT_EPOCH   = 25693
BSTAR          = .322698E-6
MEAN_MOTION_DOT = -.181E-5
MEAN_MOTION_DDOT = 0

CCSDS_OMM_VERS = 2.0
CREATION_DATE  = 
ORIGINATOR     = 

OBJECT_NAME    = CZ-2C R/B
OBJECT_ID      = 2022-058K
CENTER_NAME    = EARTH
REF_FRAME      = TEME
TIME_SYSTEM    = UTC
MEAN_ELEMENT_THEORY = SGP/SGP4

EPOCH          = 2026-02-03T14:28:42.142656
MEAN_MOTION    = 15.51827388
ECCENTRICITY   = .00424756
INCLINATION    = 50.1897
RA_OF_ASC_NODE = 133.3094
ARG_OF_PERICENTER = 56.2790
MEAN_ANOMALY   = 304.2217

EPHEMERIS_TYPE = 0
CLASSIFICATION_TYPE = U
NORAD_CAT_ID   = 52794
ELEMENT_SET_NO = 999
REV_AT_EPOCH   = 20483
BSTAR          = .47819632E-3
MEAN_MOTION_DOT = .29913E-3
MEAN_MOTION_DDOT = 0

